{
  "type": "FeatureCollection",
  "features": [
    {
      "type": "Feature",
      "properties": {
        "norad_id": 66450,
        "name": "STARLINK-35334",
        "group": "last-30-days",
        "lat": 30.528580060576793,
        "lon": 105.9650322325428,
        "alt_km": 410.3504437586389,
        "timestamp": "2025-12-09T09:46:46.421040+00:00",
        "meta_object_name": "STARLINK-35334",
        "meta_object_id": "2025-259AE",
        "meta_epoch": "2025-12-08T22:45:06.386112",
        "meta_mean_motion": 15.50615981,
        "meta_eccentricity": 0.0001305,
        "meta_inclination": 42.9969,
        "meta_ra_of_asc_node": 69.3883,
        "meta_arg_of_pericenter": 271.9278,
        "meta_mean_anomaly": 88.1433,
        "meta_ephemeris_type": 0,
        "meta_classification_type": "U",
        "meta_norad_cat_id": 66450,
        "meta_element_set_no": 999,
        "meta_rev_at_epoch": 558,
        "meta_bstar": 0.0020122,
        "meta_mean_motion_dot": 0.00119681,
        "meta_mean_motion_ddot": 0,
        "tle_line1": "1 66450U 25259AE  25342.94799058  .00119681  00000+0  20122-2 0  9995",
        "tle_line2": "2 66450  42.9969  69.3883 0001305 271.9278  88.1433 15.50615981  5580"
      },
      "geometry": {
        "type": "Point",
        "coordinates": [
          105.9650322325428,
          30.528580060576793
        ]
      }
    },
    {
      "type": "Feature",
      "properties": {
        "norad_id": 66454,
        "name": "VIASAT-3 F2",
        "group": "last-30-days",
        "lat": 3.919989810241995,
        "lon": -22.232469113895753,
        "alt_km": 22139.845336720977,
        "timestamp": "2025-12-09T09:46:46.421054+00:00",
        "meta_object_name": "VIASAT-3 F2",
        "meta_object_id": "2025-261A",
        "meta_epoch": "2025-12-06T17:04:58.090944",
        "meta_mean_motion": 2.24196708,
        "meta_eccentricity": 0.23030921,
        "meta_inclination": 5.516,
        "meta_ra_of_asc_node": 292.8248,
        "meta_arg_of_pericenter": 186.81,
        "meta_mean_anomaly": 221.0538,
        "meta_ephemeris_type": 0,
        "meta_classification_type": "U",
        "meta_norad_cat_id": 66454,
        "meta_element_set_no": 999,
        "meta_rev_at_epoch": 51,
        "meta_bstar": 0,
        "meta_mean_motion_dot": -7.3e-07,
        "meta_mean_motion_ddot": 0,
        "tle_line1": "1 66454U 25261A   25340.71178346 -.00000073  00000+0  00000+0 0  9991",
        "tle_line2": "2 66454   5.5160 292.8248 2303092 186.8100 221.0538  2.24196708   518"
      },
      "geometry": {
        "type": "Point",
        "coordinates": [
          -22.232469113895753,
          3.919989810241995
        ]
      }
    },
    {
      "type": "Feature",
      "properties": {
        "norad_id": 66455,
        "name": "ATLAS 5 CENTAUR R/B",
        "group": "last-30-days",
        "lat": 6.13837750553597,
        "lon": 17.363082424908978,
        "alt_km": 17661.27624307324,
        "timestamp": "2025-12-09T09:46:46.421066+00:00",
        "meta_object_name": "ATLAS 5 CENTAUR R/B",
        "meta_object_id": "2025-261B",
        "meta_epoch": "2025-12-08T20:04:31.158336",
        "meta_mean_motion": 2.28259542,
        "meta_eccentricity": 0.23295216,
        "meta_inclination": 6.1507,
        "meta_ra_of_asc_node": 292.007,
        "meta_arg_of_pericenter": 185.6994,
        "meta_mean_anomaly": 177.2847,
        "meta_ephemeris_type": 0,
        "meta_classification_type": "U",
        "meta_norad_cat_id": 66455,
        "meta_element_set_no": 999,
        "meta_rev_at_epoch": 56,
        "meta_bstar": 0,
        "meta_mean_motion_dot": -7.9e-07,
        "meta_mean_motion_ddot": 0,
        "tle_line1": "1 66455U 25261B   25342.83647174 -.00000079  00000+0  00000+0 0  9993",
        "tle_line2": "2 66455   6.1507 292.0070 2329521 185.6994 177.2847  2.28259542   569"
      },
      "geometry": {
        "type": "Point",
        "coordinates": [
          17.363082424908978,
          6.13837750553597
        ]
      }
    },
    {
      "type": "Feature",
      "properties": {
        "norad_id": 66456,
        "name": "STARLINK-35643",
        "group": "last-30-days",
        "lat": 4.575447023984854,
        "lon": 95.73641057055292,
        "alt_km": 443.4435971464336,
        "timestamp": "2025-12-09T09:46:46.421088+00:00",
        "meta_object_name": "STARLINK-35643",
        "meta_object_id": "2025-262A",
        "meta_epoch": "2025-12-09T04:00:01.998720",
        "meta_mean_motion": 15.40632769,
        "meta_eccentricity": 0.0001452,
        "meta_inclination": 43.0003,
        "meta_ra_of_asc_node": 92.1977,
        "meta_arg_of_pericenter": 263.8048,
        "meta_mean_anomaly": 205.8762,
        "meta_ephemeris_type": 0,
        "meta_classification_type": "U",
        "meta_norad_cat_id": 66456,
        "meta_element_set_no": 999,
        "meta_rev_at_epoch": 506,
        "meta_bstar": 0.0024067,
        "meta_mean_motion_dot": 0.00101347,
        "meta_mean_motion_ddot": 0,
        "tle_line1": "1 66456U 25262A   25343.16668980  .00101347  00000+0  24067-2 0  9991",
        "tle_line2": "2 66456  43.0003  92.1977 0001452 263.8048 205.8762 15.40632769  5061"
      },
      "geometry": {
        "type": "Point",
        "coordinates": [
          95.73641057055292,
          4.575447023984854
        ]
      }
    },
    {
      "type": "Feature",
      "properties": {
        "norad_id": 66457,
        "name": "STARLINK-35466",
        "group": "last-30-days",
        "lat": 20.935039518400792,
        "lon": 114.98749331768671,
        "alt_km": 441.0454738314329,
        "timestamp": "2025-12-09T09:46:46.421099+00:00",
        "meta_object_name": "STARLINK-35466",
        "meta_object_id": "2025-262B",
        "meta_epoch": "2025-12-09T04:00:01.998720",
        "meta_mean_motion": 15.4064302,
        "meta_eccentricity": 0.0001183,
        "meta_inclination": 43.0003,
        "meta_ra_of_asc_node": 92.1368,
        "meta_arg_of_pericenter": 280.4949,
        "meta_mean_anomaly": 214.0585,
        "meta_ephemeris_type": 0,
        "meta_classification_type": "U",
        "meta_norad_cat_id": 66457,
        "meta_element_set_no": 999,
        "meta_rev_at_epoch": 506,
        "meta_bstar": 0.0020333,
        "meta_mean_motion_dot": 0.00085428,
        "meta_mean_motion_ddot": 0,
        "tle_line1": "1 66457U 25262B   25343.16668980  .00085428  00000+0  20333-2 0  9995",
        "tle_line2": "2 66457  43.0003  92.1368 0001183 280.4949 214.0585 15.40643020  5069"
      },
      "geometry": {
        "type": "Point",
        "coordinates": [
          114.98749331768671,
          20.935039518400792
        ]
      }
    },
    {
      "type": "Feature",
      "properties": {
        "norad_id": 66458,
        "name": "STARLINK-35684",
        "group": "last-30-days",
        "lat": 12.903409049645383,
        "lon": 105.01007302868197,
        "alt_km": 442.424506045586,
        "timestamp": "2025-12-09T09:46:46.421110+00:00",
        "meta_object_name": "STARLINK-35684",
        "meta_object_id": "2025-262C",
        "meta_epoch": "2025-12-09T04:00:01.998720",
        "meta_mean_motion": 15.40655211,
        "meta_eccentricity": 0.000146,
        "meta_inclination": 43.0003,
        "meta_ra_of_asc_node": 92.1662,
        "meta_arg_of_pericenter": 262.511,
        "meta_mean_anomaly": 219.5519,
        "meta_ephemeris_type": 0,
        "meta_classification_type": "U",
        "meta_norad_cat_id": 66458,
        "meta_element_set_no": 999,
        "meta_rev_at_epoch": 506,
        "meta_bstar": 0.0018425,
        "meta_mean_motion_dot": 0.00077329,
        "meta_mean_motion_ddot": 0,
        "tle_line1": "1 66458U 25262C   25343.16668980  .00077329  00000+0  18425-2 0  9996",
        "tle_line2": "2 66458  43.0003  92.1662 0001460 262.5110 219.5519 15.40655211  5068"
      },
      "geometry": {
        "type": "Point",
        "coordinates": [
          105.01007302868197,
          12.903409049645383
        ]
      }
    },
    {
      "type": "Feature",
      "properties": {
        "norad_id": 66459,
        "name": "STARLINK-35449",
        "group": "last-30-days",
        "lat": 28.309274034982785,
        "lon": 126.03005458731498,
        "alt_km": 440.23605460286944,
        "timestamp": "2025-12-09T09:46:46.421123+00:00",
        "meta_object_name": "STARLINK-35449",
        "meta_object_id": "2025-262D",
        "meta_epoch": "2025-12-09T04:00:01.998720",
        "meta_mean_motion": 15.40633107,
        "meta_eccentricity": 0.0001552,
        "meta_inclination": 43.0002,
        "meta_ra_of_asc_node": 92.105,
        "meta_arg_of_pericenter": 277.9489,
        "meta_mean_anomaly": 229.0701,
        "meta_ephemeris_type": 0,
        "meta_classification_type": "U",
        "meta_norad_cat_id": 66459,
        "meta_element_set_no": 999,
        "meta_rev_at_epoch": 506,
        "meta_bstar": 0.0017195,
        "meta_mean_motion_dot": 0.00072045,
        "meta_mean_motion_ddot": 0,
        "tle_line1": "1 66459U 25262D   25343.16668980  .00072045  00000+0  17195-2 0  9990",
        "tle_line2": "2 66459  43.0002  92.1050 0001552 277.9489 229.0701 15.40633107  5069"
      },
      "geometry": {
        "type": "Point",
        "coordinates": [
          126.03005458731498,
          28.309274034982785
        ]
      }
    }
  ]
}